{"fetched_at":"2026-03-29T16:36:15Z","count":15609,"tles":[{"name":"STARLINK-36552","line1":"1 67503U 26012L   26087.71706899  .00025182  00000+0  92128-3 0  9994","line2":"2 67503  43.0009 206.7821 0000764 253.7813 106.2955 15.27587172 10678","category":"Starlink"}]}