{
  "norad_id": 67503,
  "name": "STARLINK-36552",
  "history": [
    {
      "epoch": "2026-03-28T17:12:34.760736Z",
      "apogee_km": 483.5519507758663,
      "perigee_km": 482.50329037525717,
      "latitude_deg": 3.044313844391853e-05,
      "longitude_deg": 122.50378476204824,
      "height_km": 482.9502634302813,
      "semi_major_axis_km": 6861.1646205755615,
      "eccentricity": 7.642e-05,
      "inclination_deg": 43.0009,
      "raan_deg": 206.7821,
      "arg_perigee_deg": 253.7813,
      "mean_anomaly_deg": 106.2955,
      "mean_motion_rev_day": 15.27587172
    }
  ]
}